{
    "links": {
        "self": "http://www.neowsapp.com/rest/v1/neo/3336904?api_key=iIulBulltgU6a56xZRHN4H3l9WmuAYTsLGpBGhQ2"
    },
    "id": "3336904",
    "neo_reference_id": "3336904",
    "name": "(2006 MW1)",
    "designation": "2006 MW1",
    "nasa_jpl_url": "http://ssd.jpl.nasa.gov/sbdb.cgi?sstr=3336904",
    "absolute_magnitude_h": 19.8,
    "estimated_diameter": {
        "kilometers": {
            "estimated_diameter_min": 0.2914439045,
            "estimated_diameter_max": 0.6516883822
        },
        "meters": {
            "estimated_diameter_min": 291.4439045349,
            "estimated_diameter_max": 651.6883821679
        },
        "miles": {
            "estimated_diameter_min": 0.1810947904,
            "estimated_diameter_max": 0.4049402617
        },
        "feet": {
            "estimated_diameter_min": 956.1808197541,
            "estimated_diameter_max": 2138.0853117517
        }
    },
    "is_potentially_hazardous_asteroid": false,
    "close_approach_data": [
        {
            "close_approach_date": "2006-06-20",
            "close_approach_date_full": "2006-Jun-20 07:57",
            "epoch_date_close_approach": 1150790220000,
            "relative_velocity": {
                "kilometers_per_second": "12.0932246748",
                "kilometers_per_hour": "43535.6088293398",
                "miles_per_hour": "27051.3342750973"
            },
            "miss_distance": {
                "astronomical": "0.2241862963",
                "lunar": "87.2084692607",
                "kilometers": "33537792.409668881",
                "miles": "20839417.8667213178"
            },
            "orbiting_body": "Earth"
        },
        {
            "close_approach_date": "2021-06-29",
            "close_approach_date_full": "2021-Jun-29 21:23",
            "epoch_date_close_approach": 1625001780000,
            "relative_velocity": {
                "kilometers_per_second": "12.1174392665",
                "kilometers_per_hour": "43622.7813595656",
                "miles_per_hour": "27105.4998953367"
            },
            "miss_distance": {
                "astronomical": "0.1702097549",
                "lunar": "66.2115946561",
                "kilometers": "25463016.786262063",
                "miles": "15821984.9557919494"
            },
            "orbiting_body": "Earth"
        },
        {
            "close_approach_date": "2036-07-07",
            "close_approach_date_full": "2036-Jul-07 17:40",
            "epoch_date_close_approach": 2099065200000,
            "relative_velocity": {
                "kilometers_per_second": "14.4518839046",
                "kilometers_per_hour": "52026.7820566414",
                "miles_per_hour": "32327.4191062503"
            },
            "miss_distance": {
                "astronomical": "0.3257429506",
                "lunar": "126.7140077834",
                "kilometers": "48730451.577275222",
                "miles": "30279698.5218411836"
            },
            "orbiting_body": "Earth"
        }
    ],
    "orbital_data": {
        "orbit_id": "12",
        "orbit_determination_date": "2017-04-06 09:08:27",
        "first_observation_date": "2006-06-19",
        "last_observation_date": "2006-07-29",
        "data_arc_in_days": 40,
        "observations_used": 47,
        "orbit_uncertainty": "6",
        "minimum_orbit_intersection": ".148254",
        "jupiter_tisserand_invariant": "3.251",
        "epoch_osculation": "2459000.5",
        "eccentricity": ".5190010692614042",
        "semi_major_axis": "2.417333736461535",
        "inclination": "19.54118278097611",
        "ascending_node_longitude": "96.59583520335974",
        "orbital_period": "1372.787596522696",
        "perihelion_distance": "1.162734942476333",
        "perihelion_argument": "173.3116872570471",
        "aphelion_distance": "3.671932530446737",
        "perihelion_time": "2459391.733570861458",
        "mean_anomaly": "257.4028568826771",
        "mean_motion": ".2622401316211545",
        "equinox": "J2000",
        "orbit_class": {
            "orbit_class_type": "AMO",
            "orbit_class_description": "Near-Earth asteroid orbits similar to that of 1221 Amor",
            "orbit_class_range": "1.017 AU < q (perihelion) < 1.3 AU"
        }
    },
    "is_sentry_object": false
}